ONEWEB-0570             
1 55149U 23004K   25346.31957680 -.00000049  00000+0 -15714-3 0  9997
2 55149  87.9172  12.5988 0001338 105.1118 255.0162 13.18684206145061
ONEWEB-0571             
1 55150U 23004L   25346.31297832 -.00000273  00000+0 -72637-3 0  9991
2 55150  87.9170  12.5997 0001301  50.0547 310.0700 13.18686343145070
ONEWEB-0572             
1 55151U 23004M   25346.18480620 -.00000154  00000+0 -43014-3 0  9991
2 55151  87.9122  43.0529 0001587  97.5396 262.5916 13.17648929142852
ONEWEB-0573             
1 55152U 23004N   25346.30637423  .00000057  00000+0  11261-3 0  9990
2 55152  87.9165  12.6062 0000998  85.8892 274.2355 13.18684066145066
ONEWEB-0588             
1 55153U 23004P   25346.07217058  .00000069  00000+0  14106-3 0  9997
2 55153  87.9177  12.6477 0001327  99.4938 260.6345 13.18685973145032
ONEWEB-0598             
1 55154U 23004Q   25346.23314468 -.00000517  00000+0 -14936-2 0  9999
2 55154  87.8861  58.3054 0001472  81.9685 278.1610 13.11419799141394
ONEWEB-0599             
1 55155U 23004R   25346.14599240 -.00000140  00000+0 -39449-3 0  9992
2 55155  87.9112  43.0618 0001788  93.4349 266.6987 13.17647417142854
ONEWEB-0614             
1 55156U 23004S   25346.22806755 -.00000453  00000+0 -13127-2 0  9995
2 55156  87.8858  58.3154 0001629 115.1042 245.0255 13.11418481141333
ONEWEB-0616             
1 55157U 23004T   25346.18817357  .00000038  00000+0  63420-4 0  9991
2 55157  87.9126  43.0455 0002683  89.0609 271.0830 13.17650631143079
ONEWEB-0617             
1 55158U 23004U   25346.21621256 -.00000035  00000+0 -13500-3 0  9999
2 55158  87.8855  58.2964 0001411 111.1164 249.0115 13.11413923141357
ONEWEB-0618             
1 55159U 23004V   25346.23206809  .00015573  00000+0  93694-3 0  9998
2 55159  86.9058 253.4400 0009810 272.8906  87.1209 15.10700973154014
ONEWEB-0619             
1 55160U 23004W   25346.14430656  .00000041  00000+0  72947-4 0  9992
2 55160  87.9120  43.0279 0002154 109.3368 250.7997 13.17649243142964
ONEWEB-0620             
1 55161U 23004X   25346.21114000  .00000183  00000+0  48157-3 0  9995
2 55161  87.8855  58.3170 0001379  99.7622 260.3662 13.11417681141329
ONEWEB-0621             
1 55162U 23004Y   25346.23823813 -.00000445  00000+0 -12906-2 0  9992
2 55162  87.8872  58.2831 0001813 110.9805 249.1517 13.11416686141300
ONEWEB-0622             
1 55163U 23004Z   25346.24333728 -.00000345  00000+0 -10104-2 0  9992
2 55163  87.8866  58.2916 0001324 130.6579 229.4664 13.11418849141297
ONEWEB-0623             
1 55164U 23004AA  25346.13923360 -.00000301  00000+0 -80877-3 0  9995
2 55164  87.9112  43.0784 0001830 125.2507 234.8796 13.17648925142957
