[{"OBJECT_NAME":"ONEWEB-0570","OBJECT_ID":"2023-004K","EPOCH":"2025-12-12T07:40:11.435520","MEAN_MOTION":13.18684206,"ECCENTRICITY":0.00013383,"INCLINATION":87.9172,"RA_OF_ASC_NODE":12.5988,"ARG_OF_PERICENTER":105.1118,"MEAN_ANOMALY":255.0162,"EPHEMERIS_TYPE":0,"CLASSIFICATION_TYPE":"U","NORAD_CAT_ID":55149,"ELEMENT_SET_NO":999,"REV_AT_EPOCH":14506,"BSTAR":-0.0001571387,"MEAN_MOTION_DOT":-4.9e-7,"MEAN_MOTION_DDOT":0},{"OBJECT_NAME":"ONEWEB-0571","OBJECT_ID":"2023-004L","EPOCH":"2025-12-12T07:30:41.326848","MEAN_MOTION":13.18686343,"ECCENTRICITY":0.00013012,"INCLINATION":87.917,"RA_OF_ASC_NODE":12.5997,"ARG_OF_PERICENTER":50.0547,"MEAN_ANOMALY":310.07,"EPHEMERIS_TYPE":0,"CLASSIFICATION_TYPE":"U","NORAD_CAT_ID":55150,"ELEMENT_SET_NO":999,"REV_AT_EPOCH":14507,"BSTAR":-0.0007263715,"MEAN_MOTION_DOT":-2.73e-6,"MEAN_MOTION_DDOT":0},{"OBJECT_NAME":"ONEWEB-0572","OBJECT_ID":"2023-004M","EPOCH":"2025-12-12T04:26:07.255680","MEAN_MOTION":13.17648929,"ECCENTRICITY":0.00015871,"INCLINATION":87.9122,"RA_OF_ASC_NODE":43.0529,"ARG_OF_PERICENTER":97.5396,"MEAN_ANOMALY":262.5916,"EPHEMERIS_TYPE":0,"CLASSIFICATION_TYPE":"U","NORAD_CAT_ID":55151,"ELEMENT_SET_NO":999,"REV_AT_EPOCH":14285,"BSTAR":-0.00043013729,"MEAN_MOTION_DOT":-1.54e-6,"MEAN_MOTION_DDOT":0},{"OBJECT_NAME":"ONEWEB-0573","OBJECT_ID":"2023-004N","EPOCH":"2025-12-12T07:21:10.733472","MEAN_MOTION":13.18684066,"ECCENTRICITY":9.987e-5,"INCLINATION":87.9165,"RA_OF_ASC_NODE":12.6062,"ARG_OF_PERICENTER":85.8892,"MEAN_ANOMALY":274.2355,"EPHEMERIS_TYPE":0,"CLASSIFICATION_TYPE":"U","NORAD_CAT_ID":55152,"ELEMENT_SET_NO":999,"REV_AT_EPOCH":14506,"BSTAR":0.00011260867,"MEAN_MOTION_DOT":5.7e-7,"MEAN_MOTION_DDOT":0},{"OBJECT_NAME":"ONEWEB-0588","OBJECT_ID":"2023-004P","EPOCH":"2025-12-12T01:43:55.538112","MEAN_MOTION":13.18685973,"ECCENTRICITY":0.00013277,"INCLINATION":87.9177,"RA_OF_ASC_NODE":12.6477,"ARG_OF_PERICENTER":99.4938,"MEAN_ANOMALY":260.6345,"EPHEMERIS_TYPE":0,"CLASSIFICATION_TYPE":"U","NORAD_CAT_ID":55153,"ELEMENT_SET_NO":999,"REV_AT_EPOCH":14503,"BSTAR":0.00014105667,"MEAN_MOTION_DOT":6.9e-7,"MEAN_MOTION_DDOT":0},{"OBJECT_NAME":"ONEWEB-0598","OBJECT_ID":"2023-004Q","EPOCH":"2025-12-12T05:35:43.700352","MEAN_MOTION":13.11419799,"ECCENTRICITY":0.00014728,"INCLINATION":87.8861,"RA_OF_ASC_NODE":58.3054,"ARG_OF_PERICENTER":81.9685,"MEAN_ANOMALY":278.161,"EPHEMERIS_TYPE":0,"CLASSIFICATION_TYPE":"U","NORAD_CAT_ID":55154,"ELEMENT_SET_NO":999,"REV_AT_EPOCH":14139,"BSTAR":-0.0014936381,"MEAN_MOTION_DOT":-5.17e-6,"MEAN_MOTION_DDOT":0},{"OBJECT_NAME":"ONEWEB-0599","OBJECT_ID":"2023-004R","EPOCH":"2025-12-12T03:30:13.743360","MEAN_MOTION":13.17647417,"ECCENTRICITY":0.00017887,"INCLINATION":87.9112,"RA_OF_ASC_NODE":43.0618,"ARG_OF_PERICENTER":93.4349,"MEAN_ANOMALY":266.6987,"EPHEMERIS_TYPE":0,"CLASSIFICATION_TYPE":"U","NORAD_CAT_ID":55155,"ELEMENT_SET_NO":999,"REV_AT_EPOCH":14285,"BSTAR":-0.00039448799,"MEAN_MOTION_DOT":-1.4e-6,"MEAN_MOTION_DDOT":0},{"OBJECT_NAME":"ONEWEB-0614","OBJECT_ID":"2023-004S","EPOCH":"2025-12-12T05:28:25.036320","MEAN_MOTION":13.11418481,"ECCENTRICITY":0.00016297,"INCLINATION":87.8858,"RA_OF_ASC_NODE":58.3154,"ARG_OF_PERICENTER":115.1042,"MEAN_ANOMALY":245.0255,"EPHEMERIS_TYPE":0,"CLASSIFICATION_TYPE":"U","NORAD_CAT_ID":55156,"ELEMENT_SET_NO":999,"REV_AT_EPOCH":14133,"BSTAR":-0.0013127268,"MEAN_MOTION_DOT":-4.53e-6,"MEAN_MOTION_DDOT":0},{"OBJECT_NAME":"ONEWEB-0616","OBJECT_ID":"2023-004T","EPOCH":"2025-12-12T04:30:58.196448","MEAN_MOTION":13.17650631,"ECCENTRICITY":0.00026832,"INCLINATION":87.9126,"RA_OF_ASC_NODE":43.0455,"ARG_OF_PERICENTER":89.0609,"MEAN_ANOMALY":271.083,"EPHEMERIS_TYPE":0,"CLASSIFICATION_TYPE":"U","NORAD_CAT_ID":55157,"ELEMENT_SET_NO":999,"REV_AT_EPOCH":14307,"BSTAR":6.3419916e-5,"MEAN_MOTION_DOT":3.8e-7,"MEAN_MOTION_DDOT":0},{"OBJECT_NAME":"ONEWEB-0617","OBJECT_ID":"2023-004U","EPOCH":"2025-12-12T05:11:20.765184","MEAN_MOTION":13.11413923,"ECCENTRICITY":0.00014119,"INCLINATION":87.8855,"RA_OF_ASC_NODE":58.2964,"ARG_OF_PERICENTER":111.1164,"MEAN_ANOMALY":249.0115,"EPHEMERIS_TYPE":0,"CLASSIFICATION_TYPE":"U","NORAD_CAT_ID":55158,"ELEMENT_SET_NO":999,"REV_AT_EPOCH":14135,"BSTAR":-0.0001350021,"MEAN_MOTION_DOT":-3.5e-7,"MEAN_MOTION_DDOT":0},{"OBJECT_NAME":"ONEWEB-0618","OBJECT_ID":"2023-004V","EPOCH":"2025-12-12T05:34:10.682976","MEAN_MOTION":15.10700973,"ECCENTRICITY":0.00098107,"INCLINATION":86.9058,"RA_OF_ASC_NODE":253.44,"ARG_OF_PERICENTER":272.8906,"MEAN_ANOMALY":87.1209,"EPHEMERIS_TYPE":0,"CLASSIFICATION_TYPE":"U","NORAD_CAT_ID":55159,"ELEMENT_SET_NO":999,"REV_AT_EPOCH":15401,"BSTAR":0.00093693924,"MEAN_MOTION_DOT":0.00015573,"MEAN_MOTION_DDOT":0},{"OBJECT_NAME":"ONEWEB-0619","OBJECT_ID":"2023-004W","EPOCH":"2025-12-12T03:27:48.086784","MEAN_MOTION":13.17649243,"ECCENTRICITY":0.0002154,"INCLINATION":87.912,"RA_OF_ASC_NODE":43.0279,"ARG_OF_PERICENTER":109.3368,"MEAN_ANOMALY":250.7997,"EPHEMERIS_TYPE":0,"CLASSIFICATION_TYPE":"U","NORAD_CAT_ID":55160,"ELEMENT_SET_NO":999,"REV_AT_EPOCH":14296,"BSTAR":7.2947318e-5,"MEAN_MOTION_DOT":4.1e-7,"MEAN_MOTION_DDOT":0},{"OBJECT_NAME":"ONEWEB-0620","OBJECT_ID":"2023-004X","EPOCH":"2025-12-12T05:04:02.496000","MEAN_MOTION":13.11417681,"ECCENTRICITY":0.00013797,"INCLINATION":87.8855,"RA_OF_ASC_NODE":58.317,"ARG_OF_PERICENTER":99.7622,"MEAN_ANOMALY":260.3662,"EPHEMERIS_TYPE":0,"CLASSIFICATION_TYPE":"U","NORAD_CAT_ID":55161,"ELEMENT_SET_NO":999,"REV_AT_EPOCH":14132,"BSTAR":0.00048157415,"MEAN_MOTION_DOT":1.83e-6,"MEAN_MOTION_DDOT":0},{"OBJECT_NAME":"ONEWEB-0621","OBJECT_ID":"2023-004Y","EPOCH":"2025-12-12T05:43:03.774432","MEAN_MOTION":13.11416686,"ECCENTRICITY":0.0001813,"INCLINATION":87.8872,"RA_OF_ASC_NODE":58.2831,"ARG_OF_PERICENTER":110.9805,"MEAN_ANOMALY":249.1517,"EPHEMERIS_TYPE":0,"CLASSIFICATION_TYPE":"U","NORAD_CAT_ID":55162,"ELEMENT_SET_NO":999,"REV_AT_EPOCH":14130,"BSTAR":-0.0012906482,"MEAN_MOTION_DOT":-4.45e-6,"MEAN_MOTION_DDOT":0},{"OBJECT_NAME":"ONEWEB-0622","OBJECT_ID":"2023-004Z","EPOCH":"2025-12-12T05:50:24.340992","MEAN_MOTION":13.11418849,"ECCENTRICITY":0.00013243,"INCLINATION":87.8866,"RA_OF_ASC_NODE":58.2916,"ARG_OF_PERICENTER":130.6579,"MEAN_ANOMALY":229.4664,"EPHEMERIS_TYPE":0,"CLASSIFICATION_TYPE":"U","NORAD_CAT_ID":55163,"ELEMENT_SET_NO":999,"REV_AT_EPOCH":14129,"BSTAR":-0.0010104136,"MEAN_MOTION_DOT":-3.45e-6,"MEAN_MOTION_DDOT":0},{"OBJECT_NAME":"ONEWEB-0623","OBJECT_ID":"2023-004AA","EPOCH":"2025-12-12T03:20:29.783040","MEAN_MOTION":13.17648925,"ECCENTRICITY":0.00018304,"INCLINATION":87.9112,"RA_OF_ASC_NODE":43.0784,"ARG_OF_PERICENTER":125.2507,"MEAN_ANOMALY":234.8796,"EPHEMERIS_TYPE":0,"CLASSIFICATION_TYPE":"U","NORAD_CAT_ID":55164,"ELEMENT_SET_NO":999,"REV_AT_EPOCH":14295,"BSTAR":-0.00080877315,"MEAN_MOTION_DOT":-3.01e-6,"MEAN_MOTION_DDOT":0}]
